{"fetched_at":"2026-07-05T12:47:17.871Z","source":"https://celestrak.org/NORAD/elements/gp.php?GROUP=oneweb&FORMAT=JSON","constellation":"oneweb","records":[{"OBJECT_NAME":"ONEWEB-0387","OBJECT_ID":"2021-090AL","EPOCH":"2026-07-04T11:43:45.872832","CLASSIFICATION_TYPE":"U","MEAN_MOTION":13.2077405,"ECCENTRICITY":0.00021824,"INCLINATION":87.9185,"RA_OF_ASC_NODE":271.0043,"ARG_OF_PERICENTER":89.946,"MEAN_ANOMALY":270.1923,"EPHEMERIS_TYPE":0,"NORAD_CAT_ID":49313,"ELEMENT_SET_NO":999,"REV_AT_EPOCH":23210,"BSTAR":0.00050458255,"MEAN_MOTION_DOT":0.00000218,"MEAN_MOTION_DDOT":0},{"OBJECT_NAME":"ONEWEB-0388","OBJECT_ID":"2021-090AM","EPOCH":"2026-07-04T18:28:38.451072","CLASSIFICATION_TYPE":"U","MEAN_MOTION":13.19726345,"ECCENTRICITY":0.0001853,"INCLINATION":87.9184,"RA_OF_ASC_NODE":301.4675,"ARG_OF_PERICENTER":97.9533,"MEAN_ANOMALY":262.181,"EPHEMERIS_TYPE":0,"NORAD_CAT_ID":49314,"ELEMENT_SET_NO":999,"REV_AT_EPOCH":22873,"BSTAR":0.000017596121,"MEAN_MOTION_DOT":2e-7,"MEAN_MOTION_DDOT":0},{"OBJECT_NAME":"ONEWEB-0389","OBJECT_ID":"2021-132A","EPOCH":"2026-07-04T21:24:15.201504","CLASSIFICATION_TYPE":"U","MEAN_MOTION":13.17649833,"ECCENTRICITY":0.00019058,"INCLINATION":87.9137,"RA_OF_ASC_NODE":2.3454,"ARG_OF_PERICENTER":79.6707,"MEAN_ANOMALY":280.4639,"EPHEMERIS_TYPE":0,"NORAD_CAT_ID":50469,"ELEMENT_SET_NO":999,"REV_AT_EPOCH":22041,"BSTAR":0.000004753051,"MEAN_MOTION_DOT":1.5e-7,"MEAN_MOTION_DDOT":0},{"OBJECT_NAME":"ONEWEB-0390","OBJECT_ID":"2021-132B","EPOCH":"2026-07-04T21:26:41.017056","CLASSIFICATION_TYPE":"U","MEAN_MOTION":13.17649932,"ECCENTRICITY":0.00021233,"INCLINATION":87.9135,"RA_OF_ASC_NODE":2.3459,"ARG_OF_PERICENTER":92.0024,"MEAN_ANOMALY":268.1351,"EPHEMERIS_TYPE":0,"NORAD_CAT_ID":50470,"ELEMENT_SET_NO":999,"REV_AT_EPOCH":22041,"BSTAR":0.000044153321,"MEAN_MOTION_DOT":3e-7,"MEAN_MOTION_DDOT":0},{"OBJECT_NAME":"ONEWEB-0391","OBJECT_ID":"2021-132C","EPOCH":"2026-07-04T17:50:25.026144","CLASSIFICATION_TYPE":"U","MEAN_MOTION":13.1765041,"ECCENTRICITY":0.0002376,"INCLINATION":87.9138,"RA_OF_ASC_NODE":2.3858,"ARG_OF_PERICENTER":72.7624,"MEAN_ANOMALY":287.3767,"EPHEMERIS_TYPE":0,"NORAD_CAT_ID":50471,"ELEMENT_SET_NO":999,"REV_AT_EPOCH":22039,"BSTAR":0.000092240301,"MEAN_MOTION_DOT":4.9e-7,"MEAN_MOTION_DDOT":0},{"OBJECT_NAME":"ONEWEB-0392","OBJECT_ID":"2021-132D","EPOCH":"2026-07-04T22:12:51.601536","CLASSIFICATION_TYPE":"U","MEAN_MOTION":13.17650083,"ECCENTRICITY":0.00019669,"INCLINATION":87.9145,"RA_OF_ASC_NODE":2.3191,"ARG_OF_PERICENTER":79.4912,"MEAN_ANOMALY":280.6441,"EPHEMERIS_TYPE":0,"NORAD_CAT_ID":50472,"ELEMENT_SET_NO":999,"REV_AT_EPOCH":22045,"BSTAR":0.000047408507,"MEAN_MOTION_DOT":3.1e-7,"MEAN_MOTION_DDOT":0},{"OBJECT_NAME":"ONEWEB-0393","OBJECT_ID":"2021-132E","EPOCH":"2026-07-04T21:37:36.325632","CLASSIFICATION_TYPE":"U","MEAN_MOTION":13.17648285,"ECCENTRICITY":0.00019164,"INCLINATION":87.9137,"RA_OF_ASC_NODE":2.3398,"ARG_OF_PERICENTER":85.2321,"MEAN_ANOMALY":274.903,"EPHEMERIS_TYPE":0,"NORAD_CAT_ID":50473,"ELEMENT_SET_NO":999,"REV_AT_EPOCH":22044,"BSTAR":-0.00040551732,"MEAN_MOTION_DOT":-0.00000145,"MEAN_MOTION_DDOT":0},{"OBJECT_NAME":"ONEWEB-0394","OBJECT_ID":"2021-132F","EPOCH":"2026-07-04T22:17:52.018656","CLASSIFICATION_TYPE":"U","MEAN_MOTION":13.18685547,"ECCENTRICITY":0.00017089,"INCLINATION":87.9187,"RA_OF_ASC_NODE":331.9133,"ARG_OF_PERICENTER":93.1063,"MEAN_ANOMALY":267.0265,"EPHEMERIS_TYPE":0,"NORAD_CAT_ID":50474,"ELEMENT_SET_NO":999,"REV_AT_EPOCH":22393,"BSTAR":-0.00069881735,"MEAN_MOTION_DOT":-0.00000263,"MEAN_MOTION_DDOT":0},{"OBJECT_NAME":"ONEWEB-0395","OBJECT_ID":"2021-132G","EPOCH":"2026-07-04T22:39:37.477728","CLASSIFICATION_TYPE":"U","MEAN_MOTION":13.11416819,"ECCENTRICITY":0.00020848,"INCLINATION":87.8877,"RA_OF_ASC_NODE":17.5311,"ARG_OF_PERICENTER":86.5918,"MEAN_ANOMALY":273.5449,"EPHEMERIS_TYPE":0,"NORAD_CAT_ID":50475,"ELEMENT_SET_NO":999,"REV_AT_EPOCH":21804,"BSTAR":-0.0014084843,"MEAN_MOTION_DOT":-0.00000486,"MEAN_MOTION_DDOT":0},{"OBJECT_NAME":"ONEWEB-0396","OBJECT_ID":"2021-132H","EPOCH":"2026-07-04T20:18:55.303488","CLASSIFICATION_TYPE":"U","MEAN_MOTION":13.18685785,"ECCENTRICITY":0.00017649,"INCLINATION":87.9188,"RA_OF_ASC_NODE":331.9427,"ARG_OF_PERICENTER":91.1517,"MEAN_ANOMALY":268.9818,"EPHEMERIS_TYPE":0,"NORAD_CAT_ID":50476,"ELEMENT_SET_NO":999,"REV_AT_EPOCH":22396,"BSTAR":0.00014474103,"MEAN_MOTION_DOT":7e-7,"MEAN_MOTION_DDOT":0},{"OBJECT_NAME":"ONEWEB-0397","OBJECT_ID":"2021-132J","EPOCH":"2026-07-04T15:12:59.076576","CLASSIFICATION_TYPE":"U","MEAN_MOTION":13.18686301,"ECCENTRICITY":0.00016471,"INCLINATION":87.9187,"RA_OF_ASC_NODE":331.9848,"ARG_OF_PERICENTER":91.1414,"MEAN_ANOMALY":268.9907,"EPHEMERIS_TYPE":0,"NORAD_CAT_ID":50477,"ELEMENT_SET_NO":999,"REV_AT_EPOCH":22391,"BSTAR":0.000098318747,"MEAN_MOTION_DOT":5.2e-7,"MEAN_MOTION_DDOT":0},{"OBJECT_NAME":"ONEWEB-0398","OBJECT_ID":"2021-132K","EPOCH":"2026-07-04T05:24:27.013824","CLASSIFICATION_TYPE":"U","MEAN_MOTION":13.11414645,"ECCENTRICITY":0.00021515,"INCLINATION":87.8884,"RA_OF_ASC_NODE":17.6662,"ARG_OF_PERICENTER":91.1355,"MEAN_ANOMALY":269.002,"EPHEMERIS_TYPE":0,"NORAD_CAT_ID":50478,"ELEMENT_SET_NO":999,"REV_AT_EPOCH":21784,"BSTAR":0.00098692259,"MEAN_MOTION_DOT":0.00000362,"MEAN_MOTION_DDOT":0},{"OBJECT_NAME":"ONEWEB-0399","OBJECT_ID":"2021-132L","EPOCH":"2026-07-04T23:23:35.636064","CLASSIFICATION_TYPE":"U","MEAN_MOTION":13.11417814,"ECCENTRICITY":0.00017894,"INCLINATION":87.8889,"RA_OF_ASC_NODE":17.5281,"ARG_OF_PERICENTER":73.4134,"MEAN_ANOMALY":286.719,"EPHEMERIS_TYPE":0,"NORAD_CAT_ID":50479,"ELEMENT_SET_NO":999,"REV_AT_EPOCH":21793,"BSTAR":0.0011853709,"MEAN_MOTION_DOT":0.00000433,"MEAN_MOTION_DDOT":0},{"OBJECT_NAME":"ONEWEB-0400","OBJECT_ID":"2021-132M","EPOCH":"2026-07-04T20:09:12.484512","CLASSIFICATION_TYPE":"U","MEAN_MOTION":13.18686144,"ECCENTRICITY":0.00020274,"INCLINATION":87.9186,"RA_OF_ASC_NODE":331.9338,"ARG_OF_PERICENTER":97.4108,"MEAN_ANOMALY":262.7255,"EPHEMERIS_TYPE":0,"NORAD_CAT_ID":50480,"ELEMENT_SET_NO":999,"REV_AT_EPOCH":22393,"BSTAR":0.000068681079,"MEAN_MOTION_DOT":4e-7,"MEAN_MOTION_DDOT":0},{"OBJECT_NAME":"ONEWEB-0401","OBJECT_ID":"2021-132N","EPOCH":"2026-07-04T15:46:58.899360","CLASSIFICATION_TYPE":"U","MEAN_MOTION":13.1868627,"ECCENTRICITY":0.00016497,"INCLINATION":87.9189,"RA_OF_ASC_NODE":331.9675,"ARG_OF_PERICENTER":99.2981,"MEAN_ANOMALY":260.8338,"EPHEMERIS_TYPE":0,"NORAD_CAT_ID":50481,"ELEMENT_SET_NO":999,"REV_AT_EPOCH":22391,"BSTAR":0.00033568493,"MEAN_MOTION_DOT":0.00000145,"MEAN_MOTION_DDOT":0},{"OBJECT_NAME":"ONEWEB-0402","OBJECT_ID":"2021-132P","EPOCH":"2026-07-04T20:21:20.749248","CLASSIFICATION_TYPE":"U","MEAN_MOTION":13.18686794,"ECCENTRICITY":0.00013803,"INCLINATION":87.9186,"RA_OF_ASC_NODE":331.9184,"ARG_OF_PERICENTER":100.404,"MEAN_ANOMALY":259.7248,"EPHEMERIS_TYPE":0,"NORAD_CAT_ID":50482,"ELEMENT_SET_NO":999,"REV_AT_EPOCH":22396,"BSTAR":0.00010376895,"MEAN_MOTION_DOT":5.4e-7,"MEAN_MOTION_DDOT":0}]}
