ONEWEB-0387             
1 49313U 21090AL  26185.48872538  .00000218  00000+0  50458-3 0  9994
2 49313  87.9185 271.0043 0002182  89.9460 270.1923 13.20774050232107
ONEWEB-0388             
1 49314U 21090AM  26185.76988948  .00000020  00000+0  17596-4 0  9997
2 49314  87.9184 301.4675 0001853  97.9533 262.1810 13.19726345228732
ONEWEB-0389             
1 50469U 21132A   26185.89184261  .00000015  00000+0  47531-5 0  9994
2 50469  87.9137   2.3454 0001905  79.6707 280.4639 13.17649833220416
ONEWEB-0390             
1 50470U 21132B   26185.89353029  .00000030  00000+0  44153-4 0  9999
2 50470  87.9135   2.3459 0002123  92.0024 268.1351 13.17649932220419
ONEWEB-0391             
1 50471U 21132C   26185.74334521  .00000049  00000+0  92240-4 0  9990
2 50471  87.9138   2.3858 0002376  72.7624 287.3767 13.17650410220391
ONEWEB-0392             
1 50472U 21132D   26185.92559724  .00000031  00000+0  47409-4 0  9993
2 50472  87.9145   2.3191 0001966  79.4912 280.6441 13.17650083220456
ONEWEB-0393             
1 50473U 21132E   26185.90111488 -.00000145  00000+0 -40552-3 0  9992
2 50473  87.9137   2.3398 0001916  85.2321 274.9030 13.17648285220441
ONEWEB-0394             
1 50474U 21132F   26185.92907429 -.00000263  00000+0 -69882-3 0  9991
2 50474  87.9187 331.9133 0001708  93.1063 267.0265 13.18685547223938
ONEWEB-0395             
1 50475U 21132G   26185.94418377 -.00000486  00000+0 -14085-2 0  9994
2 50475  87.8877  17.5311 0002084  86.5918 273.5449 13.11416819218041
ONEWEB-0396             
1 50476U 21132H   26185.84647342  .00000070  00000+0  14474-3 0  9990
2 50476  87.9188 331.9427 0001764  91.1517 268.9818 13.18685785223962
ONEWEB-0397             
1 50477U 21132J   26185.63401709  .00000052  00000+0  98319-4 0  9994
2 50477  87.9187 331.9848 0001647  91.1414 268.9907 13.18686301223914
ONEWEB-0398             
1 50478U 21132K   26185.22531266  .00000362  00000+0  98692-3 0  9999
2 50478  87.8884  17.6662 0002151  91.1355 269.0020 13.11414645217841
ONEWEB-0399             
1 50479U 21132L   26185.97471801  .00000433  00000+0  11854-2 0  9993
2 50479  87.8889  17.5281 0001789  73.4134 286.7190 13.11417814217932
ONEWEB-0400             
1 50480U 21132M   26185.83972783  .00000040  00000+0  68681-4 0  9991
2 50480  87.9186 331.9338 0002027  97.4108 262.7255 13.18686144223938
ONEWEB-0401             
1 50481U 21132N   26185.65762615  .00000145  00000+0  33568-3 0  9994
2 50481  87.9189 331.9675 0001649  99.2981 260.8338 13.18686270223913
ONEWEB-0402             
1 50482U 21132P   26185.84815682  .00000054  00000+0  10377-3 0  9991
2 50482  87.9186 331.9184 0001380 100.4040 259.7248 13.18686794223962
